GAOFEN-11 01            
1 43585U 18063A   26200.26933726  .00006980  00000+0  10126-3 0  9996
2 43585  97.1266 267.0740 0003754 183.5055 176.6175 15.56143094445330
ICESAT-2                
1 43613U 18070A   26200.24010469  .00004705  00000+0  17108-3 0  9994
2 43613  92.0088 299.6414 0005183  49.8916 310.2787 15.28217224437359
HYSIS                   
1 43719U 18096A   26200.28720770  .00000717  00000+0  10486-3 0  9997
2 43719  97.9821 266.7811 0001757  84.2295 275.9116 14.78675397412165
KAZSTSAT                
1 43783U 18099AB  26200.31939728  .00000071  00000+0  10178-4 0  9992
2 43783  97.4311 230.8008 0007199 323.7199  36.3536 14.99958111416121
SAUDISAT 5A             
1 43831U 18102A   26200.31466888  .00002640  00000+0  98202-4 0  9991
2 43831  97.3045 261.2796 0010046  30.4588 329.7233 15.28344347420580
SAUDISAT 5B             
1 43833U 18102C   26200.32828477  .00002511  00000+0  92836-4 0  9994
2 43833  97.3155 264.4210 0010823  31.7093 328.4797 15.28586187420703
GAOFEN-10R              
1 44622U 19066A   26200.26947104  .00000522  00000+0  70897-4 0  9996
2 44622  98.0511 154.0849 0006650  42.0295 318.1428 14.83061945367132
CARTOSAT-3              
1 44804U 19081A   26200.23293741  .00002112  00000+0  10342-3 0  9998
2 44804  97.4282 261.5809 0012627  46.0651 314.1623 15.19200791368333
GAOFEN-12 01            
1 44819U 19082A   26200.31887631  .00000150  00000+0  26168-4 0  9995
2 44819  97.8111 205.8518 0000774  61.6520 298.4771 14.80481296358841
CSG-1                   
1 44873U 19092A   26200.32139501  .00000125  00000+0  22282-4 0  9998
2 44873  97.8898  23.4601 0001449  95.4876 264.6502 14.82158591356238
NEMO-HD                 
1 46277U 20061F   26200.32099878  .00006259  00000+0  13375-3 0  9994
2 46277  97.1895 261.9598 0001026 108.5550 251.5811 15.45190669326943
SENTINEL-6A             
1 46984U 20086A   26200.01853982 -.00000058  00000+0  14563-4 0  9999
2 46984  66.0411  68.9392 0007785 269.7181  90.2942 12.80930206264402
CAS500-1                
1 47932U 21022A   26200.31714009  .00003069  00000+0  14494-3 0  9999
2 47932  97.3855  94.9133 0005601 157.5052 202.6430 15.20156671295647
GAOFEN-12 02            
1 48079U 21026A   26200.26580297  .00000143  00000+0  25634-4 0  9999
2 48079  97.9937 198.3178 0006042 121.6113 238.5689 14.80317648286502
PLEIADES NEO 3          
1 48268U 21034A   26200.26353957  .00000144  00000+0  24860-4 0  9990
2 48268  97.8937 274.5690 0001381  96.5549 263.5821 14.81672075282401
PLEIADES NEO 4          
1 49070U 21073E   26199.48690350  .00000372  00000+0  53929-4 0  9998
2 49070  97.8937 273.7994 0001317  95.2302 264.9061 14.81674771266007
LANDSAT 9               
1 49260U 21088A   26200.19672802  .00000146  00000+0  42439-4 0  9991
2 49260  98.2266 269.9842 0001091  91.3209 268.8115 14.57097126255668
CSG-2                   
1 51444U 22008A   26200.28759924  .00000357  00000+0  51393-4 0  9995
2 51444  97.8896  23.4203 0001651  89.5749 270.5654 14.82176517241341
GAOFEN-12 03            
1 52912U 22069A   26200.23357458  .00000288  00000+0  44667-4 0  9993
2 52912  97.8231  87.2899 0002366  67.7923 292.3540 14.80078576219356
SWOT                    
1 54754U 22173A   26200.21409969 -.00000029  00000+0 -18107-4 0  9993
2 54754  77.6115 352.0725 0000238  66.7338 293.3839 14.00172496183636
GAOFEN-12 04            
1 57654U 23123A   26200.25408653  .00000444  00000+0  65864-4 0  9995
2 57654  97.9098 117.7915 0003304  41.9464 318.2000 14.79779451157371
PARS 1                  
1 59065U 24039Q   26200.28762425  .00006437  00000+0  13217-3 0  9995
2 59065  97.4846 182.2375 0009267  13.2236 346.9255 15.46343018133606
RESURS-P 4              
1 59371U 24061A   26200.26365321  .00001576  00000+0  52969-4 0  9999
2 59371  97.2761 147.6096 0003214  83.4765 276.6843 15.32293808128676
LEGION 1                
1 59625U 24081A   26200.22313185  .00001718  00000+0  90688-4 0  9998
2 59625  97.5009 277.7405 0007805 252.9533 107.0846 15.16858491122391
LEGION 2                
1 59626U 24081B   26200.25357614  .00001818  00000+0  95799-4 0  9996
2 59626  97.5008 277.8673 0010538 218.0175 142.0316 15.16838144122407
ALOS-4 (DAICHI-4)       
1 60182U 24123A   26200.28412745  .00000650  00000+0  93841-4 0  9991
2 60182  97.9221 296.9993 0001537  97.9508 262.1878 14.79476054110621
LEGION 3                
1 60452U 24146A   26200.22519204  .00001127  00000+0  71905-4 0  9995
2 60452  45.0014 218.7870 0007812 356.0076   4.0739 15.15667826106884
LEGION 4                
1 60453U 24146B   26200.29076499  .00001703  00000+0  10154-3 0  9995
2 60453  45.0023 310.3031 0009184 138.9826 221.1744 15.15696782105742
SENTINEL-2C             
1 60989U 24157A   26200.20053541  .00000038  00000+0  31283-4 0  9992
2 60989  98.5682 274.5278 0001018 105.6830 254.4465 14.30816368 97567
IONOSFERA-M 1           
1 61735U 24199A   26200.26235068 -.00000002  00000+0  18908-4 0  9991
2 61735  98.7129  73.0896 0002096  67.0670 293.0729 14.22759646132268
