OBJECT_NAME,OBJECT_ID,EPOCH,MEAN_MOTION,ECCENTRICITY,INCLINATION,RA_OF_ASC_NODE,ARG_OF_PERICENTER,MEAN_ANOMALY,EPHEMERIS_TYPE,CLASSIFICATION_TYPE,NORAD_CAT_ID,ELEMENT_SET_NO,REV_AT_EPOCH,BSTAR,MEAN_MOTION_DOT,MEAN_MOTION_DDOT
GAOFEN-11 01,2018-063A,2026-07-19T06:27:50.739264,15.56143094,.00037547,97.1266,267.0740,183.5055,176.6175,0,U,43585,999,44533,.10125776E-3,.698E-4,0
ICESAT-2,2018-070A,2026-07-19T05:45:45.045216,15.28217224,.00051836,92.0088,299.6414,49.8916,310.2787,0,U,43613,999,43735,.17107573E-3,.4705E-4,0
HYSIS,2018-096A,2026-07-19T06:53:34.745280,14.78675397,.00017576,97.9821,266.7811,84.2295,275.9116,0,U,43719,999,41216,.10485687E-3,.717E-5,0
KAZSTSAT,2018-099AB,2026-07-19T07:39:55.924992,14.99958111,.00071991,97.4311,230.8008,323.7199,36.3536,0,U,43783,999,41612,.1017826E-4,.71E-6,0
SAUDISAT 5A,2018-102A,2026-07-19T07:33:07.391232,15.28344347,.00100468,97.3045,261.2796,30.4588,329.7233,0,U,43831,999,42058,.98201504E-4,.264E-4,0
SAUDISAT 5B,2018-102C,2026-07-19T07:52:43.804128,15.28586187,.00108238,97.3155,264.4210,31.7093,328.4797,0,U,43833,999,42070,.92836052E-4,.2511E-4,0
GAOFEN-10R,2019-066A,2026-07-19T06:28:02.297856,14.83061945,.00066504,98.0511,154.0849,42.0295,318.1428,0,U,44622,999,36713,.7089691E-4,.522E-5,0
CARTOSAT-3,2019-081A,2026-07-19T05:35:25.792224,15.19200791,.0012627,97.4282,261.5809,46.0651,314.1623,0,U,44804,999,36833,.10342078E-3,.2112E-4,0
GAOFEN-12 01,2019-082A,2026-07-19T07:39:10.913184,14.80481296,.00007743,97.8111,205.8518,61.6520,298.4771,0,U,44819,999,35884,.26168048E-4,.15E-5,0
CSG-1,2019-092A,2026-07-19T07:42:48.528864,14.82158591,.00014493,97.8898,23.4601,95.4876,264.6502,0,U,44873,999,35623,.22282135E-4,.125E-5,0
NEMO-HD,2020-061F,2026-07-19T07:42:14.294592,15.45190669,.00010269,97.1895,261.9598,108.5550,251.5811,0,U,46277,999,32694,.13375496E-3,.6259E-4,0
SENTINEL-6A,2020-086A,2026-07-19T00:26:41.840448,12.80930206,.00077857,66.0411,68.9392,269.7181,90.2942,0,U,46984,999,26440,.14562853E-4,-.58E-6,0
CAS500-1,2021-022A,2026-07-19T07:36:40.903776,15.20156671,.00056019,97.3855,94.9133,157.5052,202.6430,0,U,47932,999,29564,.14494377E-3,.3069E-4,0
GAOFEN-12 02,2021-026A,2026-07-19T06:22:45.376608,14.80317648,.00060427,97.9937,198.3178,121.6113,238.5689,0,U,48079,999,28650,.2563391E-4,.143E-5,0
PLEIADES NEO 3,2021-034A,2026-07-19T06:19:29.818848,14.81672075,.00013819,97.8937,274.5690,96.5549,263.5821,0,U,48268,999,28240,.24860284E-4,.144E-5,0
PLEIADES NEO 4,2021-073E,2026-07-18T11:41:08.462400,14.81674771,.00013179,97.8937,273.7994,95.2302,264.9061,0,U,49070,999,26600,.53928827E-4,.372E-5,0
LANDSAT 9,2021-088A,2026-07-19T04:43:17.300928,14.57097126,.00010912,98.2266,269.9842,91.3209,268.8115,0,U,49260,999,25566,.42439097E-4,.146E-5,0
CSG-2,2022-008A,2026-07-19T06:54:08.574336,14.82176517,.00016514,97.8896,23.4203,89.5749,270.5654,0,U,51444,999,24134,.51393154E-4,.357E-5,0
GAOFEN-12 03,2022-069A,2026-07-19T05:36:20.843712,14.80078576,.00023663,97.8231,87.2899,67.7923,292.3540,0,U,52912,999,21935,.44666849E-4,.288E-5,0
SWOT,2022-173A,2026-07-19T05:08:18.213216,14.00172496,.00002386,77.6115,352.0725,66.7338,293.3839,0,U,54754,999,18363,-.1810689E-4,-.29E-6,0
GAOFEN-12 04,2023-123A,2026-07-19T06:05:53.076192,14.79779451,.00033048,97.9098,117.7915,41.9464,318.2000,0,U,57654,999,15737,.65864218E-4,.444E-5,0
PARS 1,2024-039Q,2026-07-19T06:54:10.735200,15.46343018,.00092675,97.4846,182.2375,13.2236,346.9255,0,U,59065,999,13360,.13216989E-3,.6437E-4,0
RESURS-P 4,2024-061A,2026-07-19T06:19:39.637344,15.32293808,.00032143,97.2761,147.6096,83.4765,276.6843,0,U,59371,999,12867,.52969313E-4,.1576E-4,0
LEGION 1,2024-081A,2026-07-19T05:21:18.591840,15.16858491,.00078056,97.5009,277.7405,252.9533,107.0846,0,U,59625,999,12239,.90688029E-4,.1718E-4,0
LEGION 2,2024-081B,2026-07-19T06:05:08.978496,15.16838144,.00105383,97.5008,277.8673,218.0175,142.0316,0,U,59626,999,12240,.95799009E-4,.1818E-4,0
ALOS-4 (DAICHI-4),2024-123A,2026-07-19T06:49:08.611680,14.79476054,.00015371,97.9221,296.9993,97.9508,262.1878,0,U,60182,999,11062,.9384071E-4,.65E-5,0
LEGION 3,2024-146A,2026-07-19T05:24:16.592256,15.15667826,.00078126,45.0014,218.7870,356.0076,4.0739,0,U,60452,999,10688,.71904603E-4,.1127E-4,0
LEGION 4,2024-146B,2026-07-19T06:58:42.095136,15.15696782,.00091841,45.0023,310.3031,138.9826,221.1744,0,U,60453,999,10574,.10153586E-3,.1703E-4,0
SENTINEL-2C,2024-157A,2026-07-19T04:48:46.259424,14.30816368,.00010183,98.5682,274.5278,105.6830,254.4465,0,U,60989,999,9756,.31282868E-4,.38E-6,0
IONOSFERA-M 1,2024-199A,2026-07-19T06:17:47.098752,14.22759646,.00020968,98.7129,73.0896,67.0670,293.0729,0,U,61735,999,13226,.1890786E-4,-.2E-7,0
